[{"OBJECT_NAME":"STARLINK-5689","OBJECT_ID":"2023-015AB","EPOCH":"2026-03-09T22:00:01.999584","MEAN_MOTION":15.12014611,"ECCENTRICITY":6.179e-5,"INCLINATION":42.9998,"RA_OF_ASC_NODE":337.6137,"ARG_OF_PERICENTER":254.0125,"MEAN_ANOMALY":325.8461,"EPHEMERIS_TYPE":0,"CLASSIFICATION_TYPE":"U","NORAD_CAT_ID":55474,"ELEMENT_SET_NO":999,"REV_AT_EPOCH":573,"BSTAR":0.0012439246,"MEAN_MOTION_DOT":0.00021586,"MEAN_MOTION_DDOT":0},{"OBJECT_NAME":"KUIPER-00148","OBJECT_ID":"2025-217H","EPOCH":"2026-03-09T06:36:19.446048","MEAN_MOTION":15.09536529,"ECCENTRICITY":0.00081087,"INCLINATION":51.8794,"RA_OF_ASC_NODE":26.5769,"ARG_OF_PERICENTER":351.8096,"MEAN_ANOMALY":8.2745,"EPHEMERIS_TYPE":0,"CLASSIFICATION_TYPE":"U","NORAD_CAT_ID":65769,"ELEMENT_SET_NO":999,"REV_AT_EPOCH":2507,"BSTAR":0.00098730243,"MEAN_MOTION_DOT":0.00015783,"MEAN_MOTION_DDOT":0}]
